QZS-1R                  
1 49336U 21096A   24206.01646541 -.00000276  00000+0  00000+0 0  9998
2 49336  36.0162  89.9697 0758589 272.1693  77.4107  1.00245255 10051
